AQUA                    
1 27424U 02022A   26077.51983125  .00000897  00000+0  18880-3 0  9992
2 27424  98.4190  45.0466 0000733 110.1300 344.9588 14.61997734270029
CZ-4B R/B               
1 27432U 02024C   26077.40921039  .00000039  00000+0  43282-4 0  9990
2 27432  98.8819 130.7712 0050044 359.5323  10.7940 14.14549108230471
MIDORI II (ADEOS-II)    
1 27597U 02056A   26077.41426823  .00000278  00000+0  12706-3 0  9990
2 27597  98.7784  35.9530 0001243  31.9392 328.1864 14.29291816211545
H-2A R/B                
1 27601U 02056E   26077.44029414  .00000241  00000+0  98799-4 0  9991
2 27601  98.3218  37.4735 0070995 134.8017 335.9289 14.33766445215361
CZ-4B R/B               
1 28059U 03049C   26077.39209097  .00000324  00000+0  85858-4 0  9997
2 28059  98.6886  72.6388 0047652 203.9081 155.9902 14.55028306187867
CZ-2C R/B               
1 28222U 04012C   26077.11294419  .00047115  00000+0  46804-3 0  9998
2 28222  97.7213 143.2093 0012938 274.9057  85.0725 15.65523615205593
SL-16 R/B               
1 28353U 04021B   26077.43751340 -.00000245  00000+0 -10292-3 0  9996
2 28353  70.9997 214.1339 0004496 358.2588   1.8518 14.14594294124079
CZ-4B R/B               
1 28415U 04035C   26077.08898179  .00006008  00000+0  21182-3 0  9994
2 28415  97.3482 111.2311 0030214 300.3467  59.4786 15.29210484181193
CZ-2C R/B               
1 28480U 04046B   26077.46075960  .00000127  00000+0  61772-4 0  9991
2 28480  98.1982 351.8986 0140345 128.6272 232.7572 14.26995118109752
ARIANE 5 R/B            
1 28499U 04049H   26077.45784897  .00000716  00000+0  85564-4 0  9998
2 28499  98.2640 246.2438 0083357 323.3410  36.2117 14.85281849147095
CZ-2D R/B               
1 28738U 05024B   26077.49405708  .00031794  00000+0  38021-3 0  9998
2 28738  97.3581  92.9681 0004306  22.4109 337.7336 15.60932652141152
ALOS (DAICHI)           
1 28931U 06002A   26077.42090813  .00001280  00000+0  22250-3 0  9994
2 28931  98.1233  33.3333 0000718  77.5433 282.5853 14.69837977 74762
